{
  "type": "FeatureCollection",
  "features": [
    {
      "type": "Feature",
      "properties": {
        "norad_id": 34314,
        "name": "COSMOS 2251 DEB",
        "group": "cosmos-2251-debris",
        "lat": 1.8861307863240806,
        "lon": -59.04732349833947,
        "alt_km": 781.6303285675594,
        "timestamp": "2025-12-17T04:57:44.754841+00:00",
        "meta_object_name": "COSMOS 2251 DEB",
        "meta_object_id": "1993-036NL",
        "meta_epoch": "2025-12-16T22:26:23.523072",
        "meta_mean_motion": 14.17433615,
        "meta_eccentricity": 0.01030387,
        "meta_inclination": 74.0055,
        "meta_ra_of_asc_node": 300.8963,
        "meta_arg_of_pericenter": 45.5786,
        "meta_mean_anomaly": 11.0492,
        "meta_ephemeris_type": 0,
        "meta_classification_type": "U",
        "meta_norad_cat_id": 34314,
        "meta_element_set_no": 999,
        "meta_rev_at_epoch": 86717,
        "meta_bstar": 0.00053265051,
        "meta_mean_motion_dot": 1.112e-05,
        "meta_mean_motion_ddot": 0,
        "tle_line1": "1 34314U 93036NL  25350.93499448  .00001112  00000+0  53265-3 0  9999",
        "tle_line2": "2 34314  74.0055 300.8963 0103038  45.5786  11.0492 14.17433615867178"
      },
      "geometry": {
        "type": "Point",
        "coordinates": [
          -59.04732349833947,
          1.8861307863240806
        ]
      }
    },
    {
      "type": "Feature",
      "properties": {
        "norad_id": 34316,
        "name": "COSMOS 2251 DEB",
        "group": "cosmos-2251-debris",
        "lat": -46.84922461611974,
        "lon": -49.804859442076115,
        "alt_km": 599.3250654122112,
        "timestamp": "2025-12-17T04:57:44.754850+00:00",
        "meta_object_name": "COSMOS 2251 DEB",
        "meta_object_id": "1993-036NN",
        "meta_epoch": "2025-12-16T05:02:36.199680",
        "meta_mean_motion": 14.91937461,
        "meta_eccentricity": 0.00085862,
        "meta_inclination": 74.0646,
        "meta_ra_of_asc_node": 329.9362,
        "meta_arg_of_pericenter": 53.0783,
        "meta_mean_anomaly": 307.1185,
        "meta_ephemeris_type": 0,
        "meta_classification_type": "U",
        "meta_norad_cat_id": 34316,
        "meta_element_set_no": 999,
        "meta_rev_at_epoch": 89261,
        "meta_bstar": 0.0011447433,
        "meta_mean_motion_dot": 0.00011578,
        "meta_mean_motion_ddot": 0,
        "tle_line1": "1 34316U 93036NN  25350.21014120  .00011578  00000+0  11447-2 0  9994",
        "tle_line2": "2 34316  74.0646 329.9362 0008586  53.0783 307.1185 14.91937461892619"
      },
      "geometry": {
        "type": "Point",
        "coordinates": [
          -49.804859442076115,
          -46.84922461611974
        ]
      }
    },
    {
      "type": "Feature",
      "properties": {
        "norad_id": 34317,
        "name": "COSMOS 2251 DEB",
        "group": "cosmos-2251-debris",
        "lat": -0.9065259358052437,
        "lon": -151.33380958235784,
        "alt_km": 1258.4940865892568,
        "timestamp": "2025-12-17T04:57:44.754859+00:00",
        "meta_object_name": "COSMOS 2251 DEB",
        "meta_object_id": "1993-036NP",
        "meta_epoch": "2025-12-16T12:49:27.293952",
        "meta_mean_motion": 13.65125604,
        "meta_eccentricity": 0.03366437,
        "meta_inclination": 73.9246,
        "meta_ra_of_asc_node": 29.5113,
        "meta_arg_of_pericenter": 18.035,
        "meta_mean_anomaly": 98.3474,
        "meta_ephemeris_type": 0,
        "meta_classification_type": "U",
        "meta_norad_cat_id": 34317,
        "meta_element_set_no": 999,
        "meta_rev_at_epoch": 83671,
        "meta_bstar": 0.00042074586,
        "meta_mean_motion_dot": 4.8e-06,
        "meta_mean_motion_ddot": 0,
        "tle_line1": "1 34317U 93036NP  25350.53434368  .00000480  00000+0  42075-3 0  9992",
        "tle_line2": "2 34317  73.9246  29.5113 0336643  18.0350  98.3474 13.65125604836717"
      },
      "geometry": {
        "type": "Point",
        "coordinates": [
          -151.33380958235784,
          -0.9065259358052437
        ]
      }
    },
    {
      "type": "Feature",
      "properties": {
        "norad_id": 34321,
        "name": "COSMOS 2251 DEB",
        "group": "cosmos-2251-debris",
        "lat": 30.8118558978317,
        "lon": -41.86659989234906,
        "alt_km": 730.5685284559322,
        "timestamp": "2025-12-17T04:57:44.754869+00:00",
        "meta_object_name": "COSMOS 2251 DEB",
        "meta_object_id": "1993-036NT",
        "meta_epoch": "2025-12-16T20:31:34.948704",
        "meta_mean_motion": 14.50073971,
        "meta_eccentricity": 0.00159103,
        "meta_inclination": 74.0274,
        "meta_ra_of_asc_node": 148.629,
        "meta_arg_of_pericenter": 277.9738,
        "meta_mean_anomaly": 195.6884,
        "meta_ephemeris_type": 0,
        "meta_classification_type": "U",
        "meta_norad_cat_id": 34321,
        "meta_element_set_no": 999,
        "meta_rev_at_epoch": 88546,
        "meta_bstar": 0.00045974307,
        "meta_mean_motion_dot": 1.759e-05,
        "meta_mean_motion_ddot": 0,
        "tle_line1": "1 34321U 93036NT  25350.85526561  .00001759  00000+0  45974-3 0  9990",
        "tle_line2": "2 34321  74.0274 148.6290 0015910 277.9738 195.6884 14.50073971885467"
      },
      "geometry": {
        "type": "Point",
        "coordinates": [
          -41.86659989234906,
          30.8118558978317
        ]
      }
    },
    {
      "type": "Feature",
      "properties": {
        "norad_id": 34323,
        "name": "COSMOS 2251 DEB",
        "group": "cosmos-2251-debris",
        "lat": -15.91503289444852,
        "lon": -60.945556532004204,
        "alt_km": 618.9950381005956,
        "timestamp": "2025-12-17T04:57:44.754878+00:00",
        "meta_object_name": "COSMOS 2251 DEB",
        "meta_object_id": "1993-036NV",
        "meta_epoch": "2025-12-16T18:50:20.461920",
        "meta_mean_motion": 14.74562283,
        "meta_eccentricity": 0.00585114,
        "meta_inclination": 73.9525,
        "meta_ra_of_asc_node": 115.1743,
        "meta_arg_of_pericenter": 158.2602,
        "meta_mean_anomaly": 319.5598,
        "meta_ephemeris_type": 0,
        "meta_classification_type": "U",
        "meta_norad_cat_id": 34323,
        "meta_element_set_no": 999,
        "meta_rev_at_epoch": 88499,
        "meta_bstar": 0.0018966212,
        "meta_mean_motion_dot": 0.00012975,
        "meta_mean_motion_ddot": 0,
        "tle_line1": "1 34323U 93036NV  25350.78495905  .00012975  00000+0  18966-2 0  9993",
        "tle_line2": "2 34323  73.9525 115.1743 0058511 158.2602 319.5598 14.74562283884994"
      },
      "geometry": {
        "type": "Point",
        "coordinates": [
          -60.945556532004204,
          -15.91503289444852
        ]
      }
    },
    {
      "type": "Feature",
      "properties": {
        "norad_id": 34325,
        "name": "COSMOS 2251 DEB",
        "group": "cosmos-2251-debris",
        "lat": 6.133031886626008,
        "lon": -173.28175303923933,
        "alt_km": 1014.3914700203486,
        "timestamp": "2025-12-17T04:57:44.754887+00:00",
        "meta_object_name": "COSMOS 2251 DEB",
        "meta_object_id": "1993-036NX",
        "meta_epoch": "2025-12-16T22:40:57.618912",
        "meta_mean_motion": 14.04498411,
        "meta_eccentricity": 0.01919084,
        "meta_inclination": 73.8705,
        "meta_ra_of_asc_node": 185.3973,
        "meta_arg_of_pericenter": 201.9166,
        "meta_mean_anomaly": 281.529,
        "meta_ephemeris_type": 0,
        "meta_classification_type": "U",
        "meta_norad_cat_id": 34325,
        "meta_element_set_no": 999,
        "meta_rev_at_epoch": 85574,
        "meta_bstar": 0.0014362748,
        "meta_mean_motion_dot": 2.676e-05,
        "meta_mean_motion_ddot": 0,
        "tle_line1": "1 34325U 93036NX  25350.94511133  .00002676  00000+0  14363-2 0  9999",
        "tle_line2": "2 34325  73.8705 185.3973 0191908 201.9166 281.5290 14.04498411855740"
      },
      "geometry": {
        "type": "Point",
        "coordinates": [
          -173.28175303923933,
          6.133031886626008
        ]
      }
    },
    {
      "type": "Feature",
      "properties": {
        "norad_id": 34327,
        "name": "COSMOS 2251 DEB",
        "group": "cosmos-2251-debris",
        "lat": 69.40459793015992,
        "lon": -66.87782754987543,
        "alt_km": 606.202087575436,
        "timestamp": "2025-12-17T04:57:44.754896+00:00",
        "meta_object_name": "COSMOS 2251 DEB",
        "meta_object_id": "1993-036NZ",
        "meta_epoch": "2025-12-16T22:35:46.744800",
        "meta_mean_motion": 14.89276244,
        "meta_eccentricity": 0.0033101,
        "meta_inclination": 73.9931,
        "meta_ra_of_asc_node": 163.4649,
        "meta_arg_of_pericenter": 338.9555,
        "meta_mean_anomaly": 142.2894,
        "meta_ephemeris_type": 0,
        "meta_classification_type": "U",
        "meta_norad_cat_id": 34327,
        "meta_element_set_no": 999,
        "meta_rev_at_epoch": 89570,
        "meta_bstar": 0.00096093429,
        "meta_mean_motion_dot": 9.171e-05,
        "meta_mean_motion_ddot": 0,
        "tle_line1": "1 34327U 93036NZ  25350.94151325  .00009171  00000+0  96093-3 0  9992",
        "tle_line2": "2 34327  73.9931 163.4649 0033101 338.9555 142.2894 14.89276244895708"
      },
      "geometry": {
        "type": "Point",
        "coordinates": [
          -66.87782754987543,
          69.40459793015992
        ]
      }
    }
  ]
}